CTC1_L_00540008-07
1 10062U 22608RN  26075.70038194  .00000000  00000+0  00000-0 0  9998
2 10062  99.5000  84.0000 0000000   0.0000 312.0000 13.56072486    15
CTC1_L_00540008-08
1 10063U 22874MV  26075.70038194  .00000000  00000+0  00000-0 0  9994
2 10063  99.5000  84.0000 0000000   0.0000 357.0000 13.56072486    15
CTC1_L_00540009-01
1 10064U 26007FA  26075.70038194  .00000000  00000+0  00000-0 0  9997
2 10064  99.5000  96.0000 0000000   0.0000  48.0000 13.56072486    16
CTC1_L_00540009-02
1 10065U 23879LI  26075.70038194  .00000000  00000+0  00000-0 0  9992
2 10065  99.5000  96.0000 0000000   0.0000  93.0000 13.56072486    17
CTC1_L_00540009-03
1 10066U 25203VM  26075.70038194  .00000000  00000+0  00000-0 0  9996
2 10066  99.5000  96.0000 0000000   0.0000 138.0000 13.56072486    18
CTC1_L_00540009-04
1 10067U 23126MN  26075.70038194  .00000000  00000+0  00000-0 0  9999
2 10067  99.5000  96.0000 0000000   0.0000 183.0000 13.56072486    19
CTC1_L_00540009-05
1 10068U 23751RM  26075.70038194  .00000000  00000+0  00000-0 0  9994
2 10068  99.5000  96.0000 0000000   0.0000 228.0000 13.56072486    10
CTC1_L_00540009-06
1 10069U 23794LM  26075.70038194  .00000000  00000+0  00000-0 0  9992
2 10069  99.5000  96.0000 0000000   0.0000 273.0000 13.56072486    11
CTC1_L_00540009-07
1 10070U 26597GL  26075.70038194  .00000000  00000+0  00000-0 0  9998
2 10070  99.5000  96.0000 0000000   0.0000 318.0000 13.56072486    13
CTC1_L_00540009-08
1 10071U 26985BM  26075.70038194  .00000000  00000+0  00000-0 0  9990
2 10071  99.5000  96.0000 0000000   0.0000   3.0000 13.56072486    15
CTC1_L_00540010-01
1 10072U 24345JK  26075.70038194  .00000000  00000+0  00000-0 0  9999
2 10072  99.5000 108.0000 0000000   0.0000  54.0000 13.56072486    16
CTC1_L_00540010-02
1 10073U 22817SP  26075.70038194  .00000000  00000+0  00000-0 0  9992
2 10073  99.5000 108.0000 0000000   0.0000  99.0000 13.56072486    16
CTC1_L_00540010-03
1 10074U 25779IU  26075.70038194  .00000000  00000+0  00000-0 0  9993
2 10074  99.5000 108.0000 0000000   0.0000 144.0000 13.56072486    18
CTC1_L_00540010-04
1 10075U 26752IW  26075.70038194  .00000000  00000+0  00000-0 0  9996
2 10075  99.5000 108.0000 0000000   0.0000 189.0000 13.56072486    18
CTC1_L_00540010-05
1 10076U 22693HC  26075.70038194  .00000000  00000+0  00000-0 0  9997
2 10076  99.5000 108.0000 0000000   0.0000 234.0000 13.56072486    10
CTC1_L_00540010-06
1 10077U 26899UK  26075.70038194  .00000000  00000+0  00000-0 0  9990
2 10077  99.5000 108.0000 0000000   0.0000 279.0000 13.56072486    10
CTC1_L_00540010-07
1 10078U 26634FE  26075.70038194  .00000000  00000+0  00000-0 0  9998
2 10078  99.5000 108.0000 0000000   0.0000 324.0000 13.56072486    12
CTC1_L_00540010-08
1 10079U 22755YF  26075.70038194  .00000000  00000+0  00000-0 0  9999
2 10079  99.5000 108.0000 0000000   0.0000   9.0000 13.56072486    13
CTC1_L_00540011-01
1 10080U 26014QY  26075.70038194  .00000000  00000+0  00000-0 0  9993
2 10080  99.5000 120.0000 0000000   0.0000  60.0000 13.56072486    16
CTC1_L_00540011-02
1 10081U 26510RL  26075.70038194  .00000000  00000+0  00000-0 0  9995
2 10081  99.5000 120.0000 0000000   0.0000 105.0000 13.56072486    17
CTC1_L_00540011-03
1 10082U 25053OW  26075.70038194  .00000000  00000+0  00000-0 0  9997
2 10082  99.5000 120.0000 0000000   0.0000 150.0000 13.56072486    18
CTC1_L_00540011-04
1 10083U 25578DR  26075.70038194  .00000000  00000+0  00000-0 0  9990
2 10083  99.5000 120.0000 0000000   0.0000 195.0000 13.56072486    18
CTC1_L_00540011-05
1 10084U 23290ZS  26075.70038194  .00000000  00000+0  00000-0 0  9990
2 10084  99.5000 120.0000 0000000   0.0000 240.0000 13.56072486    10
CTC1_L_00540011-06
1 10085U 26927OL  26075.70038194  .00000000  00000+0  00000-0 0  9991
2 10085  99.5000 120.0000 0000000   0.0000 285.0000 13.56072486    10
CTC1_L_00540011-07
1 10086U 23554PZ  26075.70038194  .00000000  00000+0  00000-0 0  9995
2 10086  99.5000 120.0000 0000000   0.0000 330.0000 13.56072486    12
CTC1_L_00540011-08
1 10087U 24904UJ  26075.70038194  .00000000  00000+0  00000-0 0  9996
2 10087  99.5000 120.0000 0000000   0.0000  15.0000 13.56072486    13
CTC1_L_00540012-01
1 10088U 24110X   26075.70038194  .00000000  00000+0  00000-0 0  9996
2 10088  99.5000 132.0000 0000000   0.0000  66.0000 13.56072486    13
CTC1_L_00540012-02
1 10089U 23149QB  26075.70038194  .00000000  00000+0  00000-0 0  9998
2 10089  99.5000 132.0000 0000000   0.0000 111.0000 13.56072486    15
CTC1_L_00540012-03
1 10090U 26325YV  26075.70038194  .00000000  00000+0  00000-0 0  9999
2 10090  99.5000 132.0000 0000000   0.0000 156.0000 13.56072486    16
CTC1_L_00540012-04
1 10091U 26242FS  26075.70038194  .00000000  00000+0  00000-0 0  9998
2 10091  99.5000 132.0000 0000000   0.0000 201.0000 13.56072486    18
CTC1_L_00540012-05
1 10092U 23965SO  26075.70038194  .00000000  00000+0  00000-0 0  9998
2 10092  99.5000 132.0000 0000000   0.0000 246.0000 13.56072486    18
CTC1_L_00540012-06
1 10093U 23402AR  26075.70038194  .00000000  00000+0  00000-0 0  9995
2 10093  99.5000 132.0000 0000000   0.0000 291.0000 13.56072486    19
CTC1_L_00540012-07
1 10094U 25954ZU  26075.70038194  .00000000  00000+0  00000-0 0  9990
2 10094  99.5000 132.0000 0000000   0.0000 336.0000 13.56072486    10
CTC1_L_00540012-08
1 10095U 22202XL  26075.70038194  .00000000  00000+0  00000-0 0  9994
2 10095  99.5000 132.0000 0000000   0.0000  21.0000 13.56072486    12
CTC1_L_00540013-01
1 10096U 22579HZ  26075.70038194  .00000000  00000+0  00000-0 0  9992
2 10096  99.5000 144.0000 0000000   0.0000  72.0000 13.56072486    12
CTC1_L_00540013-02
1 10097U 23912MD  26075.70038194  .00000000  00000+0  00000-0 0  9995
2 10097  99.5000 144.0000 0000000   0.0000 117.0000 13.56072486    13
CTC1_L_00540013-03
1 10098U 22353BM  26075.70038194  .00000000  00000+0  00000-0 0  9994
2 10098  99.5000 144.0000 0000000   0.0000 162.0000 13.56072486    14
CTC1_L_00540013-04
1 10099U 22751SK  26075.70038194  .00000000  00000+0  00000-0 0  9997
2 10099  99.5000 144.0000 0000000   0.0000 207.0000 13.56072486    15
CTC1_L_00540013-05
1 10100U 22612ZR  26075.70038194  .00000000  00000+0  00000-0 0  9996
2 10100  99.5000 144.0000 0000000   0.0000 252.0000 13.56072486    18
CTC1_L_00540013-06
1 10101U 22864PV  26075.70038194  .00000000  00000+0  00000-0 0  9996
2 10101  99.5000 144.0000 0000000   0.0000 297.0000 13.56072486    18
CTC1_L_00540013-07
1 10102U 23868XW  26075.70038194  .00000000  00000+0  00000-0 0  9992
2 10102  99.5000 144.0000 0000000   0.0000 342.0000 13.56072486    10
CTC1_L_00540013-08
1 10103U 26177UB  26075.70038194  .00000000  00000+0  00000-0 0  9999
2 10103  99.5000 144.0000 0000000   0.0000  27.0000 13.56072486    11
CTC1_L_00540014-01
1 10104U 23402MA  26075.70038194  .00000000  00000+0  00000-0 0  9998
2 10104  99.5000 156.0000 0000000   0.0000  78.0000 13.56072486    11
CTC1_L_00540014-02
1 10105U 23283UB  26075.70038194  .00000000  00000+0  00000-0 0  9996
2 10105  99.5000 156.0000 0000000   0.0000 123.0000 13.56072486    13
CTC1_L_00540014-03
1 10106U 23460UL  26075.70038194  .00000000  00000+0  00000-0 0  9994
2 10106  99.5000 156.0000 0000000   0.0000 168.0000 13.56072486    13
CTC1_L_00540014-04
1 10107U 22548GR  26075.70038194  .00000000  00000+0  00000-0 0  9991
2 10107  99.5000 156.0000 0000000   0.0000 213.0000 13.56072486    15
CTC1_L_00540014-05
1 10108U 24755UG  26075.70038194  .00000000  00000+0  00000-0 0  9994
2 10108  99.5000 156.0000 0000000   0.0000 258.0000 13.56072486    15
CTC1_L_00540014-06
1 10109U 22502LA  26075.70038194  .00000000  00000+0  00000-0 0  9993
2 10109  99.5000 156.0000 0000000   0.0000 303.0000 13.56072486    17
CTC1_L_00540014-07
1 10110U 26955FM  26075.70038194  .00000000  00000+0  00000-0 0  9991
2 10110  99.5000 156.0000 0000000   0.0000 348.0000 13.56072486    18
CTC1_L_00540014-08
1 10111U 24517W   26075.70038194  .00000000  00000+0  00000-0 0  9994
2 10111  99.5000 156.0000 0000000   0.0000  33.0000 13.56072486    10
CTC1_L_00540015-01
1 10112U 26529FV  26075.70038194  .00000000  00000+0  00000-0 0  9990
2 10112  99.5000 168.0000 0000000   0.0000  84.0000 13.56072486    10
CTC1_L_00540015-02
1 10113U 23177KO  26075.70038194  .00000000  00000+0  00000-0 0  9997
2 10113  99.5000 168.0000 0000000   0.0000 129.0000 13.56072486    11
CTC1_L_00540015-03
1 10114U 22702IV  26075.70038194  .00000000  00000+0  00000-0 0  9991
2 10114  99.5000 168.0000 0000000   0.0000 174.0000 13.56072486    12
CTC1_L_00540015-04
1 10115U 24314OC  26075.70038194  .00000000  00000+0  00000-0 0  9993
2 10115  99.5000 168.0000 0000000   0.0000 219.0000 13.56072486    13
CTC1_L_00540015-05
1 10116U 24333LS  26075.70038194  .00000000  00000+0  00000-0 0  9995
2 10116  99.5000 168.0000 0000000   0.0000 264.0000 13.56072486    14
CTC1_L_00540015-06
1 10117U 24347TQ  26075.70038194  .00000000  00000+0  00000-0 0  9991
2 10117  99.5000 168.0000 0000000   0.0000 309.0000 13.56072486    15
CTC1_L_00540015-07
1 10118U 23060EN  26075.70038194  .00000000  00000+0  00000-0 0  9993
2 10118  99.5000 168.0000 0000000   0.0000 354.0000 13.56072486    16
CTC1_L_00540015-08
1 10119U 26110FP  26075.70038194  .00000000  00000+0  00000-0 0  9993
2 10119  99.5000 168.0000 0000000   0.0000  39.0000 13.56072486    17
CTC1_L_00540016-01
1 10120U 24907YG  26075.70038194  .00000000  00000+0  00000-0 0  9997
2 10120  99.5000 180.0000 0000000   0.0000  90.0000 13.56072486    10
CTC1_L_00540016-02
1 10121U 26175UJ  26075.70038194  .00000000  00000+0  00000-0 0  9997
2 10121  99.5000 180.0000 0000000   0.0000 135.0000 13.56072486    11
CTC1_L_00540016-03
1 10122U 23778LP  26075.70038194  .00000000  00000+0  00000-0 0  9994
2 10122  99.5000 180.0000 0000000   0.0000 180.0000 13.56072486    12
CTC1_L_00540016-04
1 10123U 22636JY  26075.70038194  .00000000  00000+0  00000-0 0  9997
2 10123  99.5000 180.0000 0000000   0.0000 225.0000 13.56072486    13
